STARLINK-1096           
1 44942U 20001AE  24252.94888532  .00040903  00000+0  10800-2 0  9994
2 44942  53.0094 174.6670 0005896 131.6330 228.5177 15.38061758258935
STARLINK-1108           
1 44944U 20001AG  24252.91667824  .01433295  00000+0  19362-1 0  9994
2 44944  53.0498 257.9240 0001135  82.1024 145.1090 15.54623517  5859
STARLINK-1109           
1 44945U 20001AH  24252.74657819  .00008325  00000+0  57725-3 0  9997
2 44945  53.0539 261.9389 0001656  80.6727 279.4449 15.06389809257685
STARLINK-1122           
1 44949U 20001AM  24252.72814992  .00003205  00000+0  23394-3 0  9993
2 44949  53.0533 262.0250 0001564  85.4451 274.6717 15.06406912257687
STARLINK-1117           
1 44952U 20001AQ  24252.44433246  .00000579  00000+0  57745-4 0  9994
2 44952  53.0546 263.2970 0001480 100.7684 259.3471 15.06390484257642
STARLINK-1066           
1 44954U 20001AS  24252.67470632  .00006705  00000+0  46853-3 0  9995
2 44954  53.0535 242.2646 0001607  90.1844 269.9329 15.06406697257902
STARLINK-1076           
1 44959U 20001AX  24252.25450966  .00000786  00000+0  71652-4 0  9991
2 44959  53.0544 244.1489 0001579 118.1889 241.9259 15.06391041257897
STARLINK-1080           
1 44961U 20001AZ  24252.26188424  .00001447  00000+0  11604-3 0  9997
2 44961  53.0537 244.1192 0001545  93.5102 266.6064 15.06390719257901
STARLINK-1088           
1 44966U 20001BE  24252.51215155  .00040837  00000+0  10699-2 0  9990
2 44966  53.0649 178.8991 0001702 120.4436 239.6735 15.38316499258853
STARLINK-1089           
1 44967U 20001BF  24252.91667824  .01469242  00000+0  80357-2 0  9993
2 44967  53.0508 233.9438 0001300 112.0531 239.2225 15.76376609  5866
STARLINK-1090           
1 44968U 20001BG  24252.26556666  .00002885  00000+0  21255-3 0  9991
2 44968  53.0537 244.1002 0001400  95.3455 264.7693 15.06394474257908
STARLINK-1092           
1 44969U 20001BH  24252.39088544  .00000094  00000+0  25211-4 0  9998
2 44969  53.0538 243.5362 0001722  94.7356 265.3830 15.06396999257917
STARLINK-1093           
1 44970U 20001BJ  24252.70050490  .00004824  00000+0  34251-3 0  9992
2 44970  53.0538 242.1477 0001455  89.3178 270.7978 15.06402870257959
STARLINK-1107           
1 44972U 20001BL  24252.39254448  .00072542  00000+0  44102-2 0  9995
2 44972  53.0498 242.6866 0003703  58.6961 301.4392 15.09808243257937
STARLINK-1115           
1 44973U 20001BM  24252.34748793  .00056266  00000+0  27904-2 0  9998
2 44973  53.0536 239.1740 0003750  78.9970 281.1446 15.17204001257979
STARLINK-1132           
1 45044U 20006A   24252.88848979  .00007985  00000+0  55429-3 0  9997
2 45044  53.0544 201.2989 0001438  91.8473 268.2681 15.06404153254327
STARLINK-1131           
1 45047U 20006D   24252.33383078  .00000456  00000+0  49545-4 0  9993
2 45047  53.0537 224.3349 0001627 101.9496 258.1676 15.06389108253958
STARLINK-1134           
1 45048U 20006E   24252.95298907  .00001872  00000+0  14450-3 0  9997
2 45048  53.0550 221.0149 0001616  90.8385 269.2790 15.06410615254057
STARLINK-1135           
1 45049U 20006F   24252.91667824  .00061288  00000+0  95573-3 0  9994
2 45049  53.0817 118.6458 0003169 114.5470 318.7508 15.53286696  5910
STARLINK-1148           
1 45052U 20006J   24252.61200997  .00026469  00000+0  12640-2 0  9994
2 45052  53.0550 216.6895 0004866  92.4585 267.6967 15.18880118254421
STARLINK-1155           
1 45053U 20006K   24252.81613740  .00727917  26465-3  11653-2 0  9997
2 45053  52.9760  33.1649 0009023 324.2475  35.7949 16.02991908256583
STARLINK-1156           
1 45054U 20006L   24252.90139095  .00017148  00000+0  11671-2 0  9995
2 45054  53.0535 221.2451 0001495  95.7795 264.3365 15.06405463254047
STARLINK-1159           
1 45057U 20006P   24252.91613129  .00002530  00000+0  18859-3 0  9999
2 45057  53.0536 221.1800 0001593  98.3615 261.7555 15.06414197254054
STARLINK-1162           
1 45058U 20006Q   24252.90875596  .00003028  00000+0  22202-3 0  9997
2 45058  53.0541 221.2088 0001493  99.2465 260.8693 15.06410754254050
STARLINK-1166           
1 45060U 20006S   24252.92718561  .00000291  00000+0  38457-4 0  9999
2 45060  53.0543 221.1303 0001595  90.2357 269.8814 15.06395836254055
STARLINK-1169           
1 45061U 20006T   24252.33744714  .00002310  00000+0  17393-3 0  9993
2 45061  53.0525 223.7783 0001500  95.2765 264.8395 15.06393514253969
STARLINK-1171           
1 45062U 20006U   24252.91981356  .00006329  00000+0  44322-3 0  9999
2 45062  53.0537 221.1605 0001472 100.3805 259.7350 15.06412350254054
STARLINK-1133           
1 45064U 20006W   24252.60098888  .00026104  00000+0  17643-2 0  9994
2 45064  53.0536 202.5942 0001545 108.6291 251.4866 15.06412078254286
STARLINK-1139           
1 45065U 20006X   24252.91667824  .00138933  00000+0  17168-2 0  9997
2 45065  53.0460 137.6569 0011053  94.7968 324.4639 15.59129500  6015
STARLINK-1145           
1 45066U 20006Y   24252.24714259  .00024627  00000+0  16676-2 0  9996
2 45066  53.0529 204.1811 0001323  89.5695 270.5446 15.06373886254225
STARLINK-1150           
1 45067U 20006Z   24252.85900298  .00028519  00000+0  19248-2 0  9996
2 45067  53.0531 201.4363 0001430 100.4425 259.6725 15.06418213254327
STARLINK-1161           
1 45068U 20006AA  24252.59372057  .00071984  00000+0  41178-2 0  9995
2 45068  53.0512 201.3794 0005737  85.8986 274.2661 15.12010091254293
STARLINK-1167           
1 45071U 20006AD  24252.89217224  .00019686  00000+0  13361-2 0  9990
2 45071  53.0533 201.2877 0001452  98.8889 261.2264 15.06419564254327
STARLINK-1168           
1 45072U 20006AE  24252.56412810  .00023457  00000+0  15881-2 0  9993
2 45072  53.0526 202.7597 0001425  99.3452 260.7698 15.06407538254274
STARLINK-1170           
1 45073U 20006AF  24252.85531835  .00027955  00000+0  18877-2 0  9990
2 45073  53.0520 201.4539 0001265  98.0905 262.0227 15.06410219254310
STARLINK-1172           
1 45074U 20006AG  24252.57518847  .00026025  00000+0  17598-2 0  9994
2 45074  53.0527 202.7104 0001362  96.0241 264.0903 15.06396480254270
STARLINK-1174           
1 45075U 20006AH  24252.27662574  .00025332  00000+0  17140-2 0  9992
2 45075  53.0529 204.0500 0001566  78.1937 281.9228 15.06387698254232
STARLINK-1177           
1 45078U 20006AL  24252.83320224  .00027829  00000+0  18791-2 0  9996
2 45078  53.0539 201.5521 0001286  90.8056 269.3080 15.06413219254306
STARLINK-1153           
1 45080U 20006AN  24252.22133920  .00002387  00000+0  17911-3 0  9993
2 45080  53.0539 204.2964 0001373  90.8397 269.2749 15.06400926254228
STARLINK-1151           
1 45081U 20006AP  24252.60468605  .00021091  00000+0  14302-2 0  9990
2 45081  53.0533 202.6550 0001549 107.4393 252.6765 15.06409785254633
STARLINK-1160           
1 45082U 20006AQ  24252.86581148  .00673700  22103-3  11696-2 0  9992
2 45082  53.0400 117.8954 0006130 223.3428 136.7120 16.01663797255482
STARLINK-1190           
1 45083U 20006AR  24252.94930891  .00010942  00000+0  75223-3 0  9993
2 45083  53.0528 221.0311 0001434  91.6889 268.4264 15.06403199254054
STARLINK-1173           
1 45084U 20006AS  24252.53280807  .00035874  00000+0  24157-2 0  9994
2 45084  53.0534 182.9012 0000997  96.1358 263.9744 15.06390060254559
STARLINK-1179           
1 45085U 20006AT  24252.79450679  .00036317  00000+0  24437-2 0  9993
2 45085  53.0541 181.7267 0001204  96.5073 263.6053 15.06411300254592
STARLINK-1185           
1 45087U 20006AV  24252.51437699  .00028522  00000+0  19254-2 0  9992
2 45087  53.0553 182.9868 0001568 116.2627 243.8523 15.06410288254557
STARLINK-1183           
1 45088U 20006AW  24252.53648878  .00003916  00000+0  28168-3 0  9993
2 45088  53.0544 182.8869 0001362 102.5123 257.6019 15.06394792254553
STARLINK-1136           
1 45089U 20006AX  24252.54387050  .00020233  00000+0  13728-2 0  9993
2 45089  53.0534 182.9391 0001338  93.2037 266.9105 15.06413931254553
STARLINK-1176           
1 45090U 20006AY  24252.52079784  .00004511  00000+0  32152-3 0  9999
2 45090  53.0545 182.9458 0001337 110.2068 249.9065 15.06399044254558
STARLINK-1137           
1 45092U 20006BA  24252.82768003  .00018741  00000+0  12733-2 0  9995
2 45092  53.0543 181.5771 0001284 102.1966 257.9167 15.06412006254599
STARLINK-1142           
1 45093U 20006BB  24252.53648266  .00035142  00000+0  22221-2 0  9999
2 45093  53.0517 182.6528 0002649 141.7788 218.3390 15.08720072254552
STARLINK-1146           
1 45094U 20006BC  24252.83778719  .00025162  00000+0  17011-2 0  9992
2 45094  53.0527 181.5210 0000956  94.5315 265.5783 15.06421201254606
STARLINK-1147           
1 45095U 20006BD  24252.83143215  .00025414  00000+0  17177-2 0  9993
2 45095  53.0553 182.1341 0001006 102.4467 257.6634 15.06426041254594
STARLINK-1152           
1 45096U 20006BE  24252.23793167  .00026595  00000+0  17982-2 0  9990
2 45096  53.0539 184.2245 0001308  98.3901 261.7236 15.06387365254506
STARLINK-1184           
1 45098U 20006BG  24252.94930818  .00033729  00000+0  22700-2 0  9997
2 45098  53.0527 181.0303 0001585 110.2024 249.9136 15.06439397254614
STARLINK-1186           
1 45099U 20006BH  24252.51806079  .00029804  00000+0  20105-2 0  9998
2 45099  53.0529 182.9671 0001229 100.5094 259.6034 15.06414783254559
STARLINK-1193           
1 45100U 20006BJ  24252.94562163  .00040441  00000+0  27147-2 0  9994
2 45100  53.0535 181.0479 0001166  72.9454 287.1663 15.06449322254615
STARLINK-1138           
1 45178U 20012A   24252.58440905  .00008113  00000+0  56282-3 0  9998
2 45178  53.0554 342.6683 0001376 102.6638 257.4505 15.06407562252311
STARLINK-1143           
1 45179U 20012B   24252.56233954  .00040611  00000+0  27249-2 0  9990
2 45179  53.0551 343.1950 0001350  74.4152 285.6986 15.06464218252363
STARLINK-1200           
1 45181U 20012D   24252.57334491  .00041871  00000+0  28082-2 0  9997
2 45181  53.0552 342.7241 0001567  75.0554 285.0608 15.06465973252373
